ONEWEB-0228             
1 48780U 21045P   24044.80089122  .00000007  00000+0 -14592-4 0  9995
2 48780  87.8942  69.2374 0001999  91.6917 268.4442 13.15547668131998
